[
    {
        "Altitude(m)": 604221.2232007149,
        "Argument of Periapsis(deg)": 0.0,
        "Eccentricity": 0.0,
        "Inclination(deg)": 60.0,
        "Latitude(deg)": 14.117353483248023,
        "Longitude(deg)": 143.3341681028589,
        "Mean Anomaly(deg)": 16.363599999999984,
        "RAAN(deg)": 235.0,
        "Satellite Name": "Test1 1035",
        "Satellite Number": 1035,
        "Semi-Major Axis(m)": 6980739.136638005,
        "Time(s)": 0
    },
    {
        "Altitude(m)": 604235.3647133743,
        "Argument of Periapsis(deg)": 0.00010418945913296404,
        "Eccentricity": 0.0,
        "Inclination(deg)": 60.0,
        "Latitude(deg)": 14.651749950204447,
        "Longitude(deg)": 143.62261575221697,
        "Mean Anomaly(deg)": 16.983706145461838,
        "RAAN(deg)": 234.99957995086027,
        "Satellite Name": "Test1 1035",
        "Satellite Number": 1035,
        "Semi-Major Axis(m)": 6980739.136638005,
        "Time(s)": 10
    },
    {
        "Altitude(m)": 604252.4033132415,
        "Argument of Periapsis(deg)": 0.0002083789182659281,
        "Eccentricity": 0.0,
        "Inclination(deg)": 60.0,
        "Latitude(deg)": 15.185656600429768,
        "Longitude(deg)": 143.91266641447936,
        "Mean Anomaly(deg)": 17.60381229092364,
        "RAAN(deg)": 234.99915990172047,
        "Satellite Name": "Test1 1035",
        "Satellite Number": 1035,
        "Semi-Major Axis(m)": 6980739.136638005,
        "Time(s)": 20
    },
    {
        "Altitude(m)": 604272.3071712676,
        "Argument of Periapsis(deg)": 0.00031256837739889213,
        "Eccentricity": 0.0,
        "Inclination(deg)": 60.0,
        "Latitude(deg)": 15.719052129234562,
        "Longitude(deg)": 144.20438760198752,
        "Mean Anomaly(deg)": 18.223918436385496,
        "RAAN(deg)": 234.9987398525808,
        "Satellite Name": "Test1 1035",
        "Satellite Number": 1035,
        "Semi-Major Axis(m)": 6980739.136638005,
        "Time(s)": 30
    },
    {
        "Altitude(m)": 604295.0431836816,
        "Argument of Periapsis(deg)": 0.0004167578365318562,
        "Eccentricity": 0.0,
        "Inclination(deg)": 60.0,
        "Latitude(deg)": 16.251914896208866,
        "Longitude(deg)": 144.49784834970382,
        "Mean Anomaly(deg)": 18.844024581847297,
        "RAAN(deg)": 234.99831980344103,
        "Satellite Name": "Test1 1035",
        "Satellite Number": 1035,
        "Semi-Major Axis(m)": 6980739.136638005,
        "Time(s)": 40
    },
    {
        "Altitude(m)": 604320.5769909126,
        "Argument of Periapsis(deg)": 0.0005209472956648203,
        "Eccentricity": 0.0,
        "Inclination(deg)": 60.0,
        "Latitude(deg)": 16.78422290918741,
        "Longitude(deg)": 144.79311825079293,
        "Mean Anomaly(deg)": 19.46413072730915,
        "RAAN(deg)": 234.99789975430124,
        "Satellite Name": "Test1 1035",
        "Satellite Number": 1035,
        "Semi-Major Axis(m)": 6980739.136638005,
        "Time(s)": 50
    },
    {
        "Altitude(m)": 604348.8729971285,
        "Argument of Periapsis(deg)": 0.0006251367547977843,
        "Eccentricity": 0.0,
        "Inclination(deg)": 60.0,
        "Latitude(deg)": 17.315953807728995,
        "Longitude(deg)": 145.09026800592983,
        "Mean Anomaly(deg)": 20.084236872771,
        "RAAN(deg)": 234.9974797051615,
        "Satellite Name": "Test1 1035",
        "Satellite Number": 1035,
        "Semi-Major Axis(m)": 6980739.136638005,
        "Time(s)": 60
    },
    {
        "Altitude(m)": 604379.8943903341,
        "Argument of Periapsis(deg)": 0.0007293262139307483,
        "Eccentricity": 0.0,
        "Inclination(deg)": 60.0,
        "Latitude(deg)": 17.847084846090045,
        "Longitude(deg)": 145.38936997348782,
        "Mean Anomaly(deg)": 20.704343018232805,
        "RAAN(deg)": 234.99705965602183,
        "Satellite Name": "Test1 1035",
        "Satellite Number": 1035,
        "Semi-Major Axis(m)": 6980739.136638005,
        "Time(s)": 70
    },
    {
        "Altitude(m)": 604413.6031630466,
        "Argument of Periapsis(deg)": 0.0008335156730637124,
        "Eccentricity": 0.0,
        "Inclination(deg)": 60.0,
        "Latitude(deg)": 18.377592875669826,
        "Longitude(deg)": 145.69049720775575,
        "Mean Anomaly(deg)": 21.32444916369466,
        "RAAN(deg)": 234.99663960688204,
        "Satellite Name": "Test1 1035",
        "Satellite Number": 1035,
        "Semi-Major Axis(m)": 6980739.136638005,
        "Time(s)": 80
    },
    {
        "Altitude(m)": 604449.9601335498,
        "Argument of Periapsis(deg)": 0.0009377051321966765,
        "Eccentricity": 0.0,
        "Inclination(deg)": 60.0,
        "Latitude(deg)": 18.907454326898122,
        "Longitude(deg)": 145.9937240109559,
        "Mean Anomaly(deg)": 21.94455530915646,
        "RAAN(deg)": 234.99621955774228,
        "Satellite Name": "Test1 1035",
        "Satellite Number": 1035,
        "Semi-Major Axis(m)": 6980739.136638005,
        "Time(s)": 90
    },
    {
        "Altitude(m)": 604488.924967696,
        "Argument of Periapsis(deg)": 0.0010418945913296407,
        "Eccentricity": 0.0,
        "Inclination(deg)": 60.0,
        "Latitude(deg)": 19.436645190542926,
        "Longitude(deg)": 146.29912648621004,
        "Mean Anomaly(deg)": 22.564661454618314,
        "RAAN(deg)": 234.99579950860254,
        "Satellite Name": "Test1 1035",
        "Satellite Number": 1035,
        "Semi-Major Axis(m)": 6980739.136638005,
        "Time(s)": 100
    },
    {
        "Altitude(m)": 604530.456201226,
        "Argument of Periapsis(deg)": 0.0011460840504626045,
        "Eccentricity": 0.0,
        "Inclination(deg)": 60.0,
        "Latitude(deg)": 19.96514099841273,
        "Longitude(deg)": 146.60678157859883,
        "Mean Anomaly(deg)": 23.184767600080114,
        "RAAN(deg)": 234.9953794594628,
        "Satellite Name": "Test1 1035",
        "Satellite Number": 1035,
        "Semi-Major Axis(m)": 6980739.136638005,
        "Time(s)": 110
    },
    {
        "Altitude(m)": 604574.5112626414,
        "Argument of Periapsis(deg)": 0.0012502735095955685,
        "Eccentricity": 0.0,
        "Inclination(deg)": 60.0,
        "Latitude(deg)": 20.492916803423473,
        "Longitude(deg)": 146.9167676300818,
        "Mean Anomaly(deg)": 23.80487374554197,
        "RAAN(deg)": 234.99495941032308,
        "Satellite Name": "Test1 1035",
        "Satellite Number": 1035,
        "Semi-Major Axis(m)": 6980739.136638005,
        "Time(s)": 120
    },
    {
        "Altitude(m)": 604621.0464965848,
        "Argument of Periapsis(deg)": 0.0013544629687285324,
        "Eccentricity": 0.0,
        "Inclination(deg)": 60.0,
        "Latitude(deg)": 21.019947159003063,
        "Longitude(deg)": 147.22916493541885,
        "Mean Anomaly(deg)": 24.424979891003822,
        "RAAN(deg)": 234.9945393611833,
        "Satellite Name": "Test1 1035",
        "Satellite Number": 1035,
        "Semi-Major Axis(m)": 6980739.136638005,
        "Time(s)": 130
    },
    {
        "Altitude(m)": 604670.0171877121,
        "Argument of Periapsis(deg)": 0.0014586524278614966,
        "Eccentricity": 0.0,
        "Inclination(deg)": 60.0,
        "Latitude(deg)": 21.546206097807925,
        "Longitude(deg)": 147.54405478623266,
        "Mean Anomaly(deg)": 25.045086036465623,
        "RAAN(deg)": 234.99411931204358,
        "Satellite Name": "Test1 1035",
        "Satellite Number": 1035,
        "Semi-Major Axis(m)": 6980739.136638005,
        "Time(s)": 140
    },
    {
        "Altitude(m)": 604721.3775850722,
        "Argument of Periapsis(deg)": 0.0015628418869944607,
        "Eccentricity": 0.0,
        "Inclination(deg)": 60.0,
        "Latitude(deg)": 22.071667109717406,
        "Longitude(deg)": 147.86152002897157,
        "Mean Anomaly(deg)": 25.665192181927477,
        "RAAN(deg)": 234.99369926290385,
        "Satellite Name": "Test1 1035",
        "Satellite Number": 1035,
        "Semi-Major Axis(m)": 6980739.136638005,
        "Time(s)": 150
    },
    {
        "Altitude(m)": 604775.0809269265,
        "Argument of Periapsis(deg)": 0.0016670313461274247,
        "Eccentricity": 0.0,
        "Inclination(deg)": 60.0,
        "Latitude(deg)": 22.596303119077337,
        "Longitude(deg)": 148.18164562390473,
        "Mean Anomaly(deg)": 26.285298327389278,
        "RAAN(deg)": 234.9932792137641,
        "Satellite Name": "Test1 1035",
        "Satellite Number": 1035,
        "Semi-Major Axis(m)": 6980739.136638005,
        "Time(s)": 160
    },
    {
        "Altitude(m)": 604831.0794660831,
        "Argument of Periapsis(deg)": 0.0017712208052603888,
        "Eccentricity": 0.0,
        "Inclination(deg)": 60.0,
        "Latitude(deg)": 23.120086461164526,
        "Longitude(deg)": 148.5045176922813,
        "Mean Anomaly(deg)": 26.90540447285113,
        "RAAN(deg)": 234.99285916462435,
        "Satellite Name": "Test1 1035",
        "Satellite Number": 1035,
        "Semi-Major Axis(m)": 6980739.136638005,
        "Time(s)": 170
    },
    {
        "Altitude(m)": 604889.3244956258,
        "Argument of Periapsis(deg)": 0.001875410264393353,
        "Eccentricity": 0.0,
        "Inclination(deg)": 60.0,
        "Latitude(deg)": 23.642988857834702,
        "Longitude(deg)": 148.8302240774,
        "Mean Anomaly(deg)": 27.525510618312932,
        "RAAN(deg)": 234.99243911548461,
        "Satellite Name": "Test1 1035",
        "Satellite Number": 1035,
        "Semi-Major Axis(m)": 6980739.136638005,
        "Time(s)": 180
    },
    {
        "Altitude(m)": 604949.7663751211,
        "Argument of Periapsis(deg)": 0.0019795997235263173,
        "Eccentricity": 0.0,
        "Inclination(deg)": 60.0,
        "Latitude(deg)": 24.164981392324094,
        "Longitude(deg)": 149.15885490671172,
        "Mean Anomaly(deg)": 28.14561676377479,
        "RAAN(deg)": 234.99201906634488,
        "Satellite Name": "Test1 1035",
        "Satellite Number": 1035,
        "Semi-Major Axis(m)": 6980739.136638005,
        "Time(s)": 190
    }
]